[{"OBJECT_NAME":"ONEWEB-0311","OBJECT_ID":"2021-075Y","EPOCH":"2026-04-25T05:51:39.587616","MEAN_MOTION":13.17648708,"ECCENTRICITY":0.0001621,"INCLINATION":87.9193,"RA_OF_ASC_NODE":16.3799,"ARG_OF_PERICENTER":95.105,"MEAN_ANOMALY":265.0266,"EPHEMERIS_TYPE":0,"CLASSIFICATION_TYPE":"U","NORAD_CAT_ID":49097,"ELEMENT_SET_NO":999,"REV_AT_EPOCH":22665,"BSTAR":0.00014275,"MEAN_MOTION_DOT":6.8e-07,"MEAN_MOTION_DDOT":0.0},{"OBJECT_NAME":"ONEWEB-0312","OBJECT_ID":"2021-075Z","EPOCH":"2026-04-25T06:13:30.883872","MEAN_MOTION":13.17647513,"ECCENTRICITY":0.0001434,"INCLINATION":87.9179,"RA_OF_ASC_NODE":16.391,"ARG_OF_PERICENTER":78.7251,"MEAN_ANOMALY":281.4041,"EPHEMERIS_TYPE":0,"CLASSIFICATION_TYPE":"U","NORAD_CAT_ID":49098,"ELEMENT_SET_NO":999,"REV_AT_EPOCH":22663,"BSTAR":0.00045913,"MEAN_MOTION_DOT":1.91e-06,"MEAN_MOTION_DDOT":0.0},{"OBJECT_NAME":"ONEWEB-0313","OBJECT_ID":"2021-075AA","EPOCH":"2026-04-25T04:31:16.640256","MEAN_MOTION":13.1764755,"ECCENTRICITY":0.0001726,"INCLINATION":87.9183,"RA_OF_ASC_NODE":16.4115,"ARG_OF_PERICENTER":82.156,"MEAN_ANOMALY":277.9767,"EPHEMERIS_TYPE":0,"CLASSIFICATION_TYPE":"U","NORAD_CAT_ID":49099,"ELEMENT_SET_NO":999,"REV_AT_EPOCH":22661,"BSTAR":0.00013533000000000002,"MEAN_MOTION_DOT":6.5e-07,"MEAN_MOTION_DDOT":0.0},{"OBJECT_NAME":"ONEWEB-0314","OBJECT_ID":"2021-075AB","EPOCH":"2026-04-25T05:32:13.174656","MEAN_MOTION":13.17648864,"ECCENTRICITY":0.0001408,"INCLINATION":87.9191,"RA_OF_ASC_NODE":16.3695,"ARG_OF_PERICENTER":83.2957,"MEAN_ANOMALY":276.8335,"EPHEMERIS_TYPE":0,"CLASSIFICATION_TYPE":"U","NORAD_CAT_ID":49100,"ELEMENT_SET_NO":999,"REV_AT_EPOCH":22659,"BSTAR":0.00018209,"MEAN_MOTION_DOT":8.4e-07,"MEAN_MOTION_DDOT":0.0},{"OBJECT_NAME":"ONEWEB-0315","OBJECT_ID":"2021-075AC","EPOCH":"2026-04-25T05:22:05.857824","MEAN_MOTION":13.12441849,"ECCENTRICITY":0.0001739,"INCLINATION":87.8999,"RA_OF_ASC_NODE":1.168,"ARG_OF_PERICENTER":92.7822,"MEAN_ANOMALY":267.3506,"EPHEMERIS_TYPE":0,"CLASSIFICATION_TYPE":"U","NORAD_CAT_ID":49101,"ELEMENT_SET_NO":999,"REV_AT_EPOCH":22822,"BSTAR":0.00051791,"MEAN_MOTION_DOT":1.99e-06,"MEAN_MOTION_DDOT":0.0},{"OBJECT_NAME":"ONEWEB-0316","OBJECT_ID":"2021-075AD","EPOCH":"2026-04-25T04:43:46.368480","MEAN_MOTION":13.18696666,"ECCENTRICITY":0.0001808,"INCLINATION":87.9208,"RA_OF_ASC_NODE":345.9984,"ARG_OF_PERICENTER":83.6227,"MEAN_ANOMALY":276.5111,"EPHEMERIS_TYPE":0,"CLASSIFICATION_TYPE":"U","NORAD_CAT_ID":49102,"ELEMENT_SET_NO":999,"REV_AT_EPOCH":23022,"BSTAR":5.1373000000000004e-05,"MEAN_MOTION_DOT":3.3e-07,"MEAN_MOTION_DDOT":0.0},{"OBJECT_NAME":"ONEWEB-0317","OBJECT_ID":"2021-075AE","EPOCH":"2026-04-25T05:26:58.363296","MEAN_MOTION":13.12441712,"ECCENTRICITY":0.0001966,"INCLINATION":87.9,"RA_OF_ASC_NODE":1.1904,"ARG_OF_PERICENTER":58.4759,"MEAN_ANOMALY":301.6561,"EPHEMERIS_TYPE":0,"CLASSIFICATION_TYPE":"U","NORAD_CAT_ID":49103,"ELEMENT_SET_NO":999,"REV_AT_EPOCH":22824,"BSTAR":6.5258e-05,"MEAN_MOTION_DOT":3.6e-07,"MEAN_MOTION_DDOT":0.0},{"OBJECT_NAME":"ONEWEB-0318","OBJECT_ID":"2021-075AF","EPOCH":"2026-04-25T04:38:59.005536","MEAN_MOTION":13.18706643,"ECCENTRICITY":0.0001758,"INCLINATION":87.9214,"RA_OF_ASC_NODE":345.9959,"ARG_OF_PERICENTER":88.9466,"MEAN_ANOMALY":271.1867,"EPHEMERIS_TYPE":0,"CLASSIFICATION_TYPE":"U","NORAD_CAT_ID":49104,"ELEMENT_SET_NO":999,"REV_AT_EPOCH":23018,"BSTAR":0.00018559999999999998,"MEAN_MOTION_DOT":8.6e-07,"MEAN_MOTION_DDOT":0.0},{"OBJECT_NAME":"ONEWEB-0319","OBJECT_ID":"2021-075AG","EPOCH":"2026-04-25T05:54:05.517216","MEAN_MOTION":13.17648541,"ECCENTRICITY":0.0001841,"INCLINATION":87.9181,"RA_OF_ASC_NODE":16.3874,"ARG_OF_PERICENTER":98.1524,"MEAN_ANOMALY":261.9816,"EPHEMERIS_TYPE":0,"CLASSIFICATION_TYPE":"U","NORAD_CAT_ID":49105,"ELEMENT_SET_NO":999,"REV_AT_EPOCH":22663,"BSTAR":0.00026432,"MEAN_MOTION_DOT":1.15e-06,"MEAN_MOTION_DDOT":0.0},{"OBJECT_NAME":"ONEWEB-0323","OBJECT_ID":"2021-075AH","EPOCH":"2026-04-25T05:00:08.786592","MEAN_MOTION":13.12443675,"ECCENTRICITY":0.0001634,"INCLINATION":87.9,"RA_OF_ASC_NODE":1.1755,"ARG_OF_PERICENTER":100.2822,"MEAN_ANOMALY":259.8491,"EPHEMERIS_TYPE":0,"CLASSIFICATION_TYPE":"U","NORAD_CAT_ID":49106,"ELEMENT_SET_NO":999,"REV_AT_EPOCH":22760,"BSTAR":0.0013479,"MEAN_MOTION_DOT":4.98e-06,"MEAN_MOTION_DDOT":0.0},{"OBJECT_NAME":"ONEWEB-0329","OBJECT_ID":"2021-075AJ","EPOCH":"2026-04-25T06:06:13.603968","MEAN_MOTION":13.17647879,"ECCENTRICITY":0.0001632,"INCLINATION":87.9184,"RA_OF_ASC_NODE":16.3863,"ARG_OF_PERICENTER":81.55,"MEAN_ANOMALY":278.5816,"EPHEMERIS_TYPE":0,"CLASSIFICATION_TYPE":"U","NORAD_CAT_ID":49107,"ELEMENT_SET_NO":999,"REV_AT_EPOCH":22661,"BSTAR":0.00024547,"MEAN_MOTION_DOT":1.08e-06,"MEAN_MOTION_DDOT":0.0},{"OBJECT_NAME":"ONEWEB-0330","OBJECT_ID":"2021-075AK","EPOCH":"2026-04-25T04:51:07.089696","MEAN_MOTION":13.17649625,"ECCENTRICITY":0.0001566,"INCLINATION":87.9191,"RA_OF_ASC_NODE":16.4149,"ARG_OF_PERICENTER":74.9538,"MEAN_ANOMALY":285.1767,"EPHEMERIS_TYPE":0,"CLASSIFICATION_TYPE":"U","NORAD_CAT_ID":49108,"ELEMENT_SET_NO":999,"REV_AT_EPOCH":22664,"BSTAR":5.0421000000000004e-05,"MEAN_MOTION_DOT":3.2e-07,"MEAN_MOTION_DDOT":0.0},{"OBJECT_NAME":"ONEWEB-0292","OBJECT_ID":"2021-083A","EPOCH":"2026-04-25T03:30:10.630368","MEAN_MOTION":13.13469464,"ECCENTRICITY":0.0001718,"INCLINATION":87.8961,"RA_OF_ASC_NODE":330.8092,"ARG_OF_PERICENTER":92.2329,"MEAN_ANOMALY":267.8997,"EPHEMERIS_TYPE":0,"CLASSIFICATION_TYPE":"U","NORAD_CAT_ID":49186,"ELEMENT_SET_NO":999,"REV_AT_EPOCH":22396,"BSTAR":-0.00023717,"MEAN_MOTION_DOT":-7.4e-07,"MEAN_MOTION_DDOT":0.0},{"OBJECT_NAME":"ONEWEB-0303","OBJECT_ID":"2021-083B","EPOCH":"2026-04-25T04:34:13.940832","MEAN_MOTION":13.18711658,"ECCENTRICITY":0.0001563,"INCLINATION":87.9196,"RA_OF_ASC_NODE":346.0005,"ARG_OF_PERICENTER":91.8957,"MEAN_ANOMALY":268.2354,"EPHEMERIS_TYPE":0,"CLASSIFICATION_TYPE":"U","NORAD_CAT_ID":49187,"ELEMENT_SET_NO":999,"REV_AT_EPOCH":22299,"BSTAR":0.0040724,"MEAN_MOTION_DOT":1.619e-05,"MEAN_MOTION_DDOT":0.0},{"OBJECT_NAME":"ONEWEB-0306","OBJECT_ID":"2021-083C","EPOCH":"2026-04-25T04:19:53.028768","MEAN_MOTION":13.18744577,"ECCENTRICITY":0.0001788,"INCLINATION":87.9208,"RA_OF_ASC_NODE":345.9862,"ARG_OF_PERICENTER":76.9247,"MEAN_ANOMALY":283.2084,"EPHEMERIS_TYPE":0,"CLASSIFICATION_TYPE":"U","NORAD_CAT_ID":49188,"ELEMENT_SET_NO":999,"REV_AT_EPOCH":22303,"BSTAR":0.0029815,"MEAN_MOTION_DOT":1.19e-05,"MEAN_MOTION_DDOT":0.0},{"OBJECT_NAME":"ONEWEB-0307","OBJECT_ID":"2021-083D","EPOCH":"2026-04-25T03:21:37.712448","MEAN_MOTION":13.13469648,"ECCENTRICITY":0.000163,"INCLINATION":87.8969,"RA_OF_ASC_NODE":330.8032,"ARG_OF_PERICENTER":88.808,"MEAN_ANOMALY":271.3236,"EPHEMERIS_TYPE":0,"CLASSIFICATION_TYPE":"U","NORAD_CAT_ID":49189,"ELEMENT_SET_NO":999,"REV_AT_EPOCH":22396,"BSTAR":0.00025238,"MEAN_MOTION_DOT":1.05e-06,"MEAN_MOTION_DDOT":0.0}]