ONEWEB-0311             
1 49097U 21075Y   26115.24420819  .00000068  00000+0  14275-3 0  9994
2 49097  87.9193  16.3799 0001621  95.1050 265.0266 13.17648708226656
ONEWEB-0312             
1 49098U 21075Z   26115.25938523  .00000191  00000+0  45913-3 0  9992
2 49098  87.9179  16.3910 0001434  78.7251 281.4041 13.17647513226632
ONEWEB-0313             
1 49099U 21075AA  26115.18838704  .00000065  00000+0  13533-3 0  9998
2 49099  87.9183  16.4115 0001726  82.1560 277.9767 13.17647550226616
ONEWEB-0314             
1 49100U 21075AB  26115.23070804  .00000084  00000+0  18209-3 0  9992
2 49100  87.9191  16.3695 0001408  83.2957 276.8335 13.17648864226594
ONEWEB-0315             
1 49101U 21075AC  26115.22367891  .00000199  00000+0  51791-3 0  9997
2 49101  87.8999   1.1680 0001739  92.7822 267.3506 13.12441849228225
ONEWEB-0316             
1 49102U 21075AD  26115.19706445  .00000033  00000+0  51373-4 0  9990
2 49102  87.9208 345.9984 0001808  83.6227 276.5111 13.18696666230223
ONEWEB-0317             
1 49103U 21075AE  26115.22706439  .00000036  00000+0  65258-4 0  9998
2 49103  87.9000   1.1904 0001966  58.4759 301.6561 13.12441712228244
ONEWEB-0318             
1 49104U 21075AF  26115.19373849  .00000086  00000+0  18560-3 0  9998
2 49104  87.9214 345.9959 0001758  88.9466 271.1867 13.18706643230182
ONEWEB-0319             
1 49105U 21075AG  26115.24589719  .00000115  00000+0  26432-3 0  9990
2 49105  87.9181  16.3874 0001841  98.1524 261.9816 13.17648541226639
ONEWEB-0323             
1 49106U 21075AH  26115.20843503  .00000498  00000+0  13479-2 0  9991
2 49106  87.9000   1.1755 0001634 100.2822 259.8491 13.12443675227605
ONEWEB-0329             
1 49107U 21075AJ  26115.25432412  .00000108  00000+0  24547-3 0  9997
2 49107  87.9184  16.3863 0001632  81.5500 278.5816 13.17647879226615
ONEWEB-0330             
1 49108U 21075AK  26115.20216539  .00000032  00000+0  50421-4 0  9990
2 49108  87.9191  16.4149 0001566  74.9538 285.1767 13.17649625226648
ONEWEB-0292             
1 49186U 21083A   26115.14595637 -.00000074  00000+0 -23717-3 0  9992
2 49186  87.8961 330.8092 0001718  92.2329 267.8997 13.13469464223969
ONEWEB-0303             
1 49187U 21083B   26115.19043913  .00001619  00000+0  40724-2 0  9993
2 49187  87.9196 346.0005 0001563  91.8957 268.2354 13.18711658222998
ONEWEB-0306             
1 49188U 21083C   26115.18047487  .00001190  00000+0  29815-2 0  9995
2 49188  87.9208 345.9862 0001788  76.9247 283.2084 13.18744577223036
ONEWEB-0307             
1 49189U 21083D   26115.14001982  .00000105  00000+0  25238-3 0  9993
2 49189  87.8969 330.8032 0001630  88.8080 271.3236 13.13469648223962
